{"type": "FeatureCollection", "features": [ {"type": "Feature", "properties": {"norad_id": 42741, "name": "EUTELSAT 172B", "group": "eutelsat", "lat": 0.0030833734706931823, "lon": 32.364611895139014, "alt_km": 35786.95986681586, "timestamp": "2025-12-04T09:47:37.194000+00:00", "meta": {"OBJECT_NAME": "EUTELSAT 172B", "OBJECT_ID": "2017-029B", "EPOCH": "2025-12-03T17:18:38.540160", "MEAN_MOTION": 1.00271292, "ECCENTRICITY": 1.907e-05, "INCLINATION": 0.0029, "RA_OF_ASC_NODE": 53.9145, "ARG_OF_PERICENTER": 175.2679, "MEAN_ANOMALY": 275.2829, "EPHEMERIS_TYPE": 0, "CLASSIFICATION_TYPE": "U", "NORAD_CAT_ID": 42741, "ELEMENT_SET_NO": 999, "REV_AT_EPOCH": 3177, "BSTAR": 0, "MEAN_MOTION_DOT": 1.2e-07, "MEAN_MOTION_DDOT": 0}, "tle": {"line1": "1 42741U 17029B   25337.72127940  .00000012  00000+0  00000+0 0  9990", "line2": "2 42741   0.0029  53.9145 0000190 175.2679 275.2829  1.00271292 31772"}}, "geometry": {"type": "Point", "coordinates": [32.364611895139014, 0.0030833734706931823]}}, {"type": "Feature", "properties": {"norad_id": 44334, "name": "EUTELSAT 7C", "group": "eutelsat", "lat": 0.019893783901927625, "lon": -132.65841563075477, "alt_km": 35772.276037667856, "timestamp": "2025-12-04T09:47:37.194027+00:00", "meta": {"OBJECT_NAME": "EUTELSAT 7C", "OBJECT_ID": "2019-034B", "EPOCH": "2025-12-04T00:46:38.554752", "MEAN_MOTION": 1.00269518, "ECCENTRICITY": 0.0003447, "INCLINATION": 0.0762, "RA_OF_ASC_NODE": 180.0814, "ARG_OF_PERICENTER": 56.4016, "MEAN_ANOMALY": 215.2751, "EPHEMERIS_TYPE": 0, "CLASSIFICATION_TYPE": "U", "NORAD_CAT_ID": 44334, "ELEMENT_SET_NO": 999, "REV_AT_EPOCH": 487, "BSTAR": 0, "MEAN_MOTION_DOT": 6.5e-07, "MEAN_MOTION_DDOT": 0}, "tle": {"line1": "1 44334U 19034B   25338.03239068  .00000065  00000+0  00000+0 0  9996", "line2": "2 44334   0.0762 180.0814 0003447  56.4016 215.2751  1.00269518  4871"}}, "geometry": {"type": "Point", "coordinates": [-132.65841563075477, 0.019893783901927625]}}, {"type": "Feature", "properties": {"norad_id": 44624, "name": "EUTELSAT 5 WEST B", "group": "eutelsat", "lat": -0.08870602387306985, "lon": -144.64073595422948, "alt_km": 35773.508412092386, "timestamp": "2025-12-04T09:47:37.194041+00:00", "meta": {"OBJECT_NAME": "EUTELSAT 5 WEST B", "OBJECT_ID": "2019-067A", "EPOCH": "2025-12-03T23:44:38.650272", "MEAN_MOTION": 1.00272817, "ECCENTRICITY": 0.000373, "INCLINATION": 0.07, "RA_OF_ASC_NODE": 329.4641, "ARG_OF_PERICENTER": 284.9373, "MEAN_ANOMALY": 169.8486, "EPHEMERIS_TYPE": 0, "CLASSIFICATION_TYPE": "U", "NORAD_CAT_ID": 44624, "ELEMENT_SET_NO": 999, "REV_AT_EPOCH": 2248, "BSTAR": 0, "MEAN_MOTION_DOT": -2.5e-07, "MEAN_MOTION_DDOT": 0}, "tle": {"line1": "1 44624U 19067A   25337.98933623 -.00000025  00000+0  00000+0 0  9992", "line2": "2 44624   0.0700 329.4641 0003730 284.9373 169.8486  1.00272817 22483"}}, "geometry": {"type": "Point", "coordinates": [-144.64073595422948, -0.08870602387306985]}}, {"type": "Feature", "properties": {"norad_id": 45027, "name": "EUTELSAT KONNECT", "group": "eutelsat", "lat": 0.018737627888901334, "lon": -132.47168103530052, "alt_km": 35782.894184797886, "timestamp": "2025-12-04T09:47:37.194053+00:00", "meta": {"OBJECT_NAME": "EUTELSAT KONNECT", "OBJECT_ID": "2020-005B", "EPOCH": "2025-12-03T18:20:38.512032", "MEAN_MOTION": 1.00268582, "ECCENTRICITY": 0.00017852, "INCLINATION": 0.0692, "RA_OF_ASC_NODE": 99.0602, "ARG_OF_PERICENTER": 186.374, "MEAN_ANOMALY": 69.7611, "EPHEMERIS_TYPE": 0, "CLASSIFICATION_TYPE": "U", "NORAD_CAT_ID": 45027, "ELEMENT_SET_NO": 999, "REV_AT_EPOCH": 2236, "BSTAR": 0, "MEAN_MOTION_DOT": 6.6e-07, "MEAN_MOTION_DDOT": 0}, "tle": {"line1": "1 45027U 20005B   25337.76433463  .00000066  00000+0  00000+0 0  9991", "line2": "2 45027   0.0692  99.0602 0001785 186.3740  69.7611  1.00268582 22368"}}, "geometry": {"type": "Point", "coordinates": [-132.47168103530052, 0.018737627888901334]}}, {"type": "Feature", "properties": {"norad_id": 49056, "name": "EUTELSAT QUANTUM", "group": "eutelsat", "lat": -0.034017506942777505, "lon": -91.92120259494506, "alt_km": 35769.89856162803, "timestamp": "2025-12-04T09:47:37.194065+00:00", "meta": {"OBJECT_NAME": "EUTELSAT QUANTUM", "OBJECT_ID": "2021-069B", "EPOCH": "2025-12-03T20:27:38.515104", "MEAN_MOTION": 1.00271917, "ECCENTRICITY": 0.00038004, "INCLINATION": 0.0193, "RA_OF_ASC_NODE": 19.889, "ARG_OF_PERICENTER": 246.5875, "MEAN_ANOMALY": 161.08, "EPHEMERIS_TYPE": 0, "CLASSIFICATION_TYPE": "U", "NORAD_CAT_ID": 49056, "ELEMENT_SET_NO": 999, "REV_AT_EPOCH": 1596, "BSTAR": 0, "MEAN_MOTION_DOT": 1.43e-06, "MEAN_MOTION_DDOT": 0}, "tle": {"line1": "1 49056U 21069B   25337.85252911  .00000143  00000+0  00000+0 0  9991", "line2": "2 49056   0.0193  19.8890 0003800 246.5875 161.0800  1.00271917 15967"}}, "geometry": {"type": "Point", "coordinates": [-91.92120259494506, -0.034017506942777505]}}, {"type": "Feature", "properties": {"norad_id": 53765, "name": "EUTELSAT KONNECT VHTS", "group": "eutelsat", "lat": 0.017651774218190676, "lon": -136.95720594717002, "alt_km": 35775.18479230694, "timestamp": "2025-12-04T09:47:37.194076+00:00", "meta": {"OBJECT_NAME": "EUTELSAT KONNECT VHTS", "OBJECT_ID": "2022-110A", "EPOCH": "2025-12-03T05:12:28.480320", "MEAN_MOTION": 1.00269007, "ECCENTRICITY": 0.0002764, "INCLINATION": 0.0603, "RA_OF_ASC_NODE": 107.1016, "ARG_OF_PERICENTER": 123.1613, "MEAN_ANOMALY": 282.8564, "EPHEMERIS_TYPE": 0, "CLASSIFICATION_TYPE": "U", "NORAD_CAT_ID": 53765, "ELEMENT_SET_NO": 999, "REV_AT_EPOCH": 486, "BSTAR": 0, "MEAN_MOTION_DOT": 3.6e-07, "MEAN_MOTION_DDOT": 0}, "tle": {"line1": "1 53765U 22110A   25337.21699630  .00000036  00000+0  00000+0 0  9995", "line2": "2 53765   0.0603 107.1016 0002764 123.1613 282.8564  1.00269007  4867"}}, "geometry": {"type": "Point", "coordinates": [-136.95720594717002, 0.017651774218190676]}}, {"type": "Feature", "properties": {"norad_id": 54048, "name": "EUTELSAT HOTBIRD 13F", "group": "eutelsat", "lat": -0.06575060082656707, "lon": -126.64664742220762, "alt_km": 35790.32084295405, "timestamp": "2025-12-04T09:47:37.194088+00:00", "meta": {"OBJECT_NAME": "EUTELSAT HOTBIRD 13F", "OBJECT_ID": "2022-134A", "EPOCH": "2025-12-02T19:57:38.448864", "MEAN_MOTION": 1.00271371, "ECCENTRICITY": 0.00019176, "INCLINATION": 0.0542, "RA_OF_ASC_NODE": 289.0481, "ARG_OF_PERICENTER": 66.1354, "MEAN_ANOMALY": 29.1621, "EPHEMERIS_TYPE": 0, "CLASSIFICATION_TYPE": "U", "NORAD_CAT_ID": 54048, "ELEMENT_SET_NO": 999, "REV_AT_EPOCH": 1140, "BSTAR": 0, "MEAN_MOTION_DOT": 1.07e-06, "MEAN_MOTION_DDOT": 0}, "tle": {"line1": "1 54048U 22134A   25336.83169501  .00000107  00000+0  00000+0 0  9991", "line2": "2 54048   0.0542 289.0481 0001917  66.1354  29.1621  1.00271371 11408"}}, "geometry": {"type": "Point", "coordinates": [-126.64664742220762, -0.06575060082656707]}}, {"type": "Feature", "properties": {"norad_id": 54225, "name": "EUTELSAT HOTBIRD 13G", "group": "eutelsat", "lat": -0.026309665655170667, "lon": -126.61782622101747, "alt_km": 35780.139698264786, "timestamp": "2025-12-04T09:47:37.194100+00:00", "meta": {"OBJECT_NAME": "EUTELSAT HOTBIRD 13G", "OBJECT_ID": "2022-146A", "EPOCH": "2025-12-04T01:48:08.882784", "MEAN_MOTION": 1.00271083, "ECCENTRICITY": 0.0002144, "INCLINATION": 0.0481, "RA_OF_ASC_NODE": 238.3515, "ARG_OF_PERICENTER": 307.4733, "MEAN_ANOMALY": 287.3658, "EPHEMERIS_TYPE": 0, "CLASSIFICATION_TYPE": "U", "NORAD_CAT_ID": 54225, "ELEMENT_SET_NO": 999, "REV_AT_EPOCH": 551, "BSTAR": 0, "MEAN_MOTION_DOT": 1.04e-06, "MEAN_MOTION_DDOT": 0}, "tle": {"line1": "1 54225U 22146A   25338.07510281  .00000104  00000+0  00000+0 0  9991", "line2": "2 54225   0.0481 238.3515 0002144 307.4733 287.3658  1.00271083  5510"}}, "geometry": {"type": "Point", "coordinates": [-126.61782622101747, -0.026309665655170667]}}, {"type": "Feature", "properties": {"norad_id": 54259, "name": "EUTELSAT 10B", "group": "eutelsat", "lat": 0.011624254237354843, "lon": -129.62208431181307, "alt_km": 35784.341250891375, "timestamp": "2025-12-04T09:47:37.194111+00:00", "meta": {"OBJECT_NAME": "EUTELSAT 10B", "OBJECT_ID": "2022-157A", "EPOCH": "2025-12-03T04:33:38.732832", "MEAN_MOTION": 1.00268425, "ECCENTRICITY": 0.0001038, "INCLINATION": 0.0608, "RA_OF_ASC_NODE": 103.578, "ARG_OF_PERICENTER": 72.8343, "MEAN_ANOMALY": 334.2971, "EPHEMERIS_TYPE": 0, "CLASSIFICATION_TYPE": "U", "NORAD_CAT_ID": 54259, "ELEMENT_SET_NO": 999, "REV_AT_EPOCH": 1106, "BSTAR": 0, "MEAN_MOTION_DOT": 8.7e-07, "MEAN_MOTION_DDOT": 0}, "tle": {"line1": "1 54259U 22157A   25337.19003163  .00000087  00000+0  00000+0 0  9998", "line2": "2 54259   0.0608 103.5780 0001038  72.8343 334.2971  1.00268425 11069"}}, "geometry": {"type": "Point", "coordinates": [-129.62208431181307, 0.011624254237354843]}}, {"type": "Feature", "properties": {"norad_id": 59346, "name": "EUTELSAT 36D", "group": "eutelsat", "lat": -0.04586499752537099, "lon": -103.79091217225289, "alt_km": 35784.343428864915, "timestamp": "2025-12-04T09:47:37.194123+00:00", "meta": {"OBJECT_NAME": "EUTELSAT 36D", "OBJECT_ID": "2024-059A", "EPOCH": "2025-12-03T13:55:38.715744", "MEAN_MOTION": 1.00270882, "ECCENTRICITY": 6.596e-05, "INCLINATION": 0.0224, "RA_OF_ASC_NODE": 345.8589, "ARG_OF_PERICENTER": 317.7492, "MEAN_ANOMALY": 13.8207, "EPHEMERIS_TYPE": 0, "CLASSIFICATION_TYPE": "U", "NORAD_CAT_ID": 59346, "ELEMENT_SET_NO": 999, "REV_AT_EPOCH": 618, "BSTAR": 0, "MEAN_MOTION_DOT": 0, "MEAN_MOTION_DDOT": 0}, "tle": {"line1": "1 59346U 24059A   25337.58030921  .00000000  00000+0  00000+0 0  9993", "line2": "2 59346   0.0224 345.8589 0000659 317.7492  13.8207  1.00270882  6186"}}, "geometry": {"type": "Point", "coordinates": [-103.79091217225289, -0.04586499752537099]}}]}